[{"OBJECT_NAME":"STARLINK-5914","OBJECT_ID":"2023-037AD","EPOCH":"2026-03-09T22:29:23.957376","MEAN_MOTION":14.98331107,"ECCENTRICITY":0.0002977,"INCLINATION":69.9977,"RA_OF_ASC_NODE":283.978,"ARG_OF_PERICENTER":268.6395,"MEAN_ANOMALY":91.4423,"EPHEMERIS_TYPE":0,"CLASSIFICATION_TYPE":"U","NORAD_CAT_ID":55941,"ELEMENT_SET_NO":999,"REV_AT_EPOCH":16401,"BSTAR":-1.239662e-5,"MEAN_MOTION_DOT":-2.41e-6,"MEAN_MOTION_DDOT":0},{"OBJECT_NAME":"LEMUR-2-ARIANNA","OBJECT_ID":"2025-009CU","EPOCH":"2026-03-09T17:46:47.419968","MEAN_MOTION":15.00881954,"ECCENTRICITY":0.00046401,"INCLINATION":97.6996,"RA_OF_ASC_NODE":151.0445,"ARG_OF_PERICENTER":147.3928,"MEAN_ANOMALY":212.7583,"EPHEMERIS_TYPE":0,"CLASSIFICATION_TYPE":"U","NORAD_CAT_ID":62699,"ELEMENT_SET_NO":999,"REV_AT_EPOCH":6263,"BSTAR":0.00071790312,"MEAN_MOTION_DOT":9.084e-5,"MEAN_MOTION_DDOT":0}]
